GLOBALSTAR M001         
1 25162U 98008A   25261.76225074 -.00000060  00000+0  28129-3 0  9991
2 25162  52.0034  60.8621 0002315  92.7479  10.8414 12.38217626255305
GLOBALSTAR M004         
1 25163U 98008B   25261.82733956 -.00000050  00000+0  29963-3 0  9998
2 25163  51.9990 128.4776 0003549 126.3467 314.1236 12.63403424273525
GLOBALSTAR M002         
1 25164U 98008C   25261.79561919 -.00000084  00000+0 -14219-3 0  9999
2 25164  52.0053   5.4962 0000889 333.4292  26.6483 11.61511780194949
GLOBALSTAR M003         
1 25165U 98008D   25261.49488763 -.00000173  00000+0 -88595-3 0  9999
2 25165  51.9942 270.0991 0008256 118.3608  48.8265 12.12060417244532
GLOBALSTAR M014         
1 25306U 98023A   25261.08529796 -.00000077  00000+0  16774-4 0  9993
2 25306  51.9836 288.5513 0001014 161.3444 232.7828 11.65481704202004
GLOBALSTAR M006         
1 25307U 98023B   25261.52066082 -.00000058  00000+0  35821-3 0  9999
2 25307  51.9976 343.4104 0002619 270.2009 190.0485 11.58175792227647
GLOBALSTAR M015         
1 25308U 98023C   25261.85263047 -.00000098  00000+0 -57109-3 0  9994
2 25308  51.9810  85.3436 0011741 240.9220 226.2333 11.48858836204847
GLOBALSTAR M008         
1 25309U 98023D   25261.56753603 -.00000044  00000+0  40822-3 0  9999
2 25309  51.9964 287.3227 0002659  17.9201 120.9259 12.36072436249397
